LANDSAT 8               
1 39084U 13008A   21060.15403690  .00000063  00000-0  24058-4 0  9995
2 39084  98.1954 132.2683 0001360 102.0359 258.0992 14.57120392428077
